<?xml version="1.0" encoding="UTF-8"?>
<kml xmlns="http://www.opengis.net/kml/2.2">
<Document>
  <name>SunPro — Pipeline Terreni Fotovoltaici (Nicola Valigi Engine System)</name>
  <description>Mappatura e qualificazione aree idonee D.Lgs. 199/2021 con allaccio Cabine Primarie AT/MT.</description>

  <!-- Stili Marker KML -->
  <Style id="pin-top">
    <IconStyle>
      <color>ff00d050</color>
      <scale>1.3</scale>
      <Icon><href>http://maps.google.com/mapfiles/kml/paddle/grn-circle.png</href></Icon>
    </IconStyle>
  </Style>
  <Style id="pin-qualificato">
    <IconStyle>
      <color>ff00a0ff</color>
      <scale>1.1</scale>
      <Icon><href>http://maps.google.com/mapfiles/kml/paddle/orange-circle.png</href></Icon>
    </IconStyle>
  </Style>
  <Style id="line-grid">
    <LineStyle>
      <color>7f00ffff</color>
      <width>2.5</width>
    </LineStyle>
  </Style>

  <Placemark>
    <name>Bacino Argille Dismesso Fornace Ravennate (96.0/100)</name>
    <styleUrl>#pin-top</styleUrl>
    <description><![CDATA[
        <div style="font-family: Arial, sans-serif; font-size: 13px; line-height: 1.5; color: #1e293b;">
          <h3 style="margin-top:0; color:#059669; border-bottom:2px solid #10b981; padding-bottom:4px;">Bacino Argille Dismesso Fornace Ravennate</h3>
          <p><b>ID Lead:</b> LEAD-ER-001 | <b>Località:</b> Faenza (Ravenna, Emilia-Romagna)</p>
          <p><b>Superficie:</b> 11.00 ha (110,000 mq) · <b>Potenza:</b> ~9.17 MWp (~12,375 MWh/a)</p>
          <hr style="border:0; border-top:1px dashed #cbd5e1;"/>
          <p><b>⚡ Cabina Primaria AT/MT:</b> CP Faenza Nord 132/15 kV (Enel Distribuzione)<br/>
             <b>Distanza di allaccio:</b> 520 m · <b>CAPEX Allaccio:</b> € 78,800</p>
          <p><b>💶 Valutazione Acquisto:</b> 7.50 €/mq (€ 825,000)<br/>
             <b>🌱 Canone Diritto Superficie (30y):</b> ~€ 33,000/anno</p>
          <p><b>🏢 Proprietà:</b> Laterizi Romagnoli Soc. Coop.<br/>
             <b>📞 Contatto / PEC:</b> lateriziromagnoli@pec.confcooperative.it</p>
          <p><b>Punteggio Idoneità:</b> <span style="font-weight:bold; color:#059669;">96.0/100</span> (TOP OPPORTUNITÀ)</p>
          
          <div style="margin-top:10px; font-size:11px; color:#64748b;">
            <i>Nicola Valigi Engine System — Conforme D.Lgs. 199/2021 (Aree Idonee)</i>
          </div>
        </div>
        ]]></description>
    <Point>
      <coordinates>11.8741,44.2981,0</coordinates>
    </Point>
  </Placemark>
  <Placemark>
    <name>Ex Stabilimento Chimico e Terreni Pertinenziali (93.4/100)</name>
    <styleUrl>#pin-top</styleUrl>
    <description><![CDATA[
        <div style="font-family: Arial, sans-serif; font-size: 13px; line-height: 1.5; color: #1e293b;">
          <h3 style="margin-top:0; color:#059669; border-bottom:2px solid #10b981; padding-bottom:4px;">Ex Stabilimento Chimico e Terreni Pertinenziali</h3>
          <p><b>ID Lead:</b> LEAD-PIEM-001 | <b>Località:</b> Tortona (Alessandria, Piemonte)</p>
          <p><b>Superficie:</b> 13.50 ha (135,000 mq) · <b>Potenza:</b> ~11.25 MWp (~14,738 MWh/a)</p>
          <hr style="border:0; border-top:1px dashed #cbd5e1;"/>
          <p><b>⚡ Cabina Primaria AT/MT:</b> CP Tortona 132/15 kV (Enel Distribuzione)<br/>
             <b>Distanza di allaccio:</b> 740 m · <b>CAPEX Allaccio:</b> € 93,100</p>
          <p><b>💶 Valutazione Acquisto:</b> 8.00 €/mq (€ 1,080,000)<br/>
             <b>🌱 Canone Diritto Superficie (30y):</b> ~€ 40,500/anno</p>
          <p><b>🏢 Proprietà:</b> Fallimento Ex Chimica Scrivia (Curatore Dott. F. Rossi)<br/>
             <b>📞 Contatto / PEC:</b> f94.2023alessandria@pecfallimenti.it</p>
          <p><b>Punteggio Idoneità:</b> <span style="font-weight:bold; color:#059669;">93.4/100</span> (TOP OPPORTUNITÀ)</p>
          
          <div style="margin-top:10px; font-size:11px; color:#64748b;">
            <i>Nicola Valigi Engine System — Conforme D.Lgs. 199/2021 (Aree Idonee)</i>
          </div>
        </div>
        ]]></description>
    <Point>
      <coordinates>8.8654,44.9082,0</coordinates>
    </Point>
  </Placemark>
  <Placemark>
    <name>Ex Cava di Inerti Valdarno e Bacino Recupero (93.0/100)</name>
    <styleUrl>#pin-top</styleUrl>
    <description><![CDATA[
        <div style="font-family: Arial, sans-serif; font-size: 13px; line-height: 1.5; color: #1e293b;">
          <h3 style="margin-top:0; color:#059669; border-bottom:2px solid #10b981; padding-bottom:4px;">Ex Cava di Inerti Valdarno e Bacino Recupero</h3>
          <p><b>ID Lead:</b> LEAD-TOSC-001 | <b>Località:</b> Montevarchi (Arezzo, Toscana)</p>
          <p><b>Superficie:</b> 6.80 ha (68,000 mq) · <b>Potenza:</b> ~5.67 MWp (~8,047 MWh/a)</p>
          <hr style="border:0; border-top:1px dashed #cbd5e1;"/>
          <p><b>⚡ Cabina Primaria AT/MT:</b> CP Montevarchi 132/15 kV<br/>
             <b>Distanza di allaccio:</b> 820 m · <b>CAPEX Allaccio:</b> € 98,300</p>
          <p><b>💶 Valutazione Acquisto:</b> 8.40 €/mq (€ 571,200)<br/>
             <b>🌱 Canone Diritto Superficie (30y):</b> ~€ 20,400/anno</p>
          <p><b>🏢 Proprietà:</b> Valdarno Scavi e Costruzioni S.r.l.<br/>
             <b>📞 Contatto / PEC:</b> valdarnoscavi@pec.it</p>
          <p><b>Punteggio Idoneità:</b> <span style="font-weight:bold; color:#059669;">93.0/100</span> (TOP OPPORTUNITÀ)</p>
          
          <div style="margin-top:10px; font-size:11px; color:#64748b;">
            <i>Nicola Valigi Engine System — Conforme D.Lgs. 199/2021 (Aree Idonee)</i>
          </div>
        </div>
        ]]></description>
    <Point>
      <coordinates>11.5645,43.5312,0</coordinates>
    </Point>
  </Placemark>
  <Placemark>
    <name>Brownfield — Sesto San Giovanni (Milano) (92.2/100)</name>
    <styleUrl>#pin-top</styleUrl>
    <description><![CDATA[
        <div style="font-family: Arial, sans-serif; font-size: 13px; line-height: 1.5; color: #1e293b;">
          <h3 style="margin-top:0; color:#059669; border-bottom:2px solid #10b981; padding-bottom:4px;">Brownfield — Sesto San Giovanni (Milano)</h3>
          <p><b>ID Lead:</b> FV-LOM-W1306185882 | <b>Località:</b> Sesto San Giovanni (Milano, Lombardia)</p>
          <p><b>Superficie:</b> 31.41 ha (314,096 mq) · <b>Potenza:</b> ~26.17 MWp (~33,504 MWh/a)</p>
          <hr style="border:0; border-top:1px dashed #cbd5e1;"/>
          <p><b>⚡ Cabina Primaria AT/MT:</b> STAZIONE_AT_TERNA Vulcano CDS<br/>
             <b>Distanza di allaccio:</b> 510 m · <b>CAPEX Allaccio:</b> € 78,150</p>
          <p><b>💶 Valutazione Acquisto:</b> 8.10 €/mq (€ 2,544,178)<br/>
             <b>🌱 Canone Diritto Superficie (30y):</b> ~€ 94,230/anno</p>
          <p><b>🏢 Proprietà:</b> Procedura Liquidatoria Area Sesto San Giovanni<br/>
             <b>📞 Contatto / PEC:</b> fallimento.sestosangiovanni@pecfallimenti.it</p>
          <p><b>Punteggio Idoneità:</b> <span style="font-weight:bold; color:#059669;">92.2/100</span> (TOP OPPORTUNITÀ)</p>
          
          <div style="margin-top:10px; font-size:11px; color:#64748b;">
            <i>Nicola Valigi Engine System — Conforme D.Lgs. 199/2021 (Aree Idonee)</i>
          </div>
        </div>
        ]]></description>
    <Point>
      <coordinates>9.24694,45.542563,0</coordinates>
    </Point>
  </Placemark>
  <Placemark>
    <name>Brownfield — Ospitaletto (Brescia) (92.2/100)</name>
    <styleUrl>#pin-top</styleUrl>
    <description><![CDATA[
        <div style="font-family: Arial, sans-serif; font-size: 13px; line-height: 1.5; color: #1e293b;">
          <h3 style="margin-top:0; color:#059669; border-bottom:2px solid #10b981; padding-bottom:4px;">Brownfield — Ospitaletto (Brescia)</h3>
          <p><b>ID Lead:</b> FV-LOM-W151766490 | <b>Località:</b> Ospitaletto (Brescia, Lombardia)</p>
          <p><b>Superficie:</b> 29.10 ha (291,046 mq) · <b>Potenza:</b> ~24.25 MWp (~31,045 MWh/a)</p>
          <hr style="border:0; border-top:1px dashed #cbd5e1;"/>
          <p><b>⚡ Cabina Primaria AT/MT:</b> STAZIONE_AT UT Esselunga Ospitaletto<br/>
             <b>Distanza di allaccio:</b> 510 m · <b>CAPEX Allaccio:</b> € 78,150</p>
          <p><b>💶 Valutazione Acquisto:</b> 8.10 €/mq (€ 2,357,473)<br/>
             <b>🌱 Canone Diritto Superficie (30y):</b> ~€ 87,300/anno</p>
          <p><b>🏢 Proprietà:</b> Procedura Liquidatoria Area Ospitaletto<br/>
             <b>📞 Contatto / PEC:</b> fallimento.ospitaletto@pecfallimenti.it</p>
          <p><b>Punteggio Idoneità:</b> <span style="font-weight:bold; color:#059669;">92.2/100</span> (TOP OPPORTUNITÀ)</p>
          
          <div style="margin-top:10px; font-size:11px; color:#64748b;">
            <i>Nicola Valigi Engine System — Conforme D.Lgs. 199/2021 (Aree Idonee)</i>
          </div>
        </div>
        ]]></description>
    <Point>
      <coordinates>10.062808,45.542764,0</coordinates>
    </Point>
  </Placemark>
  <Placemark>
    <name>Brownfield — Sesto San Giovanni (Milano) (92.2/100)</name>
    <styleUrl>#pin-top</styleUrl>
    <description><![CDATA[
        <div style="font-family: Arial, sans-serif; font-size: 13px; line-height: 1.5; color: #1e293b;">
          <h3 style="margin-top:0; color:#059669; border-bottom:2px solid #10b981; padding-bottom:4px;">Brownfield — Sesto San Giovanni (Milano)</h3>
          <p><b>ID Lead:</b> FV-LOM-W203468251 | <b>Località:</b> Sesto San Giovanni (Milano, Lombardia)</p>
          <p><b>Superficie:</b> 25.16 ha (251,628 mq) · <b>Potenza:</b> ~20.97 MWp (~26,840 MWh/a)</p>
          <hr style="border:0; border-top:1px dashed #cbd5e1;"/>
          <p><b>⚡ Cabina Primaria AT/MT:</b> STAZIONE_AT_TERNA RISE Sesto<br/>
             <b>Distanza di allaccio:</b> 510 m · <b>CAPEX Allaccio:</b> € 78,150</p>
          <p><b>💶 Valutazione Acquisto:</b> 8.10 €/mq (€ 2,038,187)<br/>
             <b>🌱 Canone Diritto Superficie (30y):</b> ~€ 75,480/anno</p>
          <p><b>🏢 Proprietà:</b> Procedura Liquidatoria Area Sesto San Giovanni<br/>
             <b>📞 Contatto / PEC:</b> fallimento.sestosangiovanni@pecfallimenti.it</p>
          <p><b>Punteggio Idoneità:</b> <span style="font-weight:bold; color:#059669;">92.2/100</span> (TOP OPPORTUNITÀ)</p>
          
          <div style="margin-top:10px; font-size:11px; color:#64748b;">
            <i>Nicola Valigi Engine System — Conforme D.Lgs. 199/2021 (Aree Idonee)</i>
          </div>
        </div>
        ]]></description>
    <Point>
      <coordinates>9.25322,45.53925,0</coordinates>
    </Point>
  </Placemark>
  <Placemark>
    <name>Brownfield — Turano Lodigiano (Lodi) (92.2/100)</name>
    <styleUrl>#pin-top</styleUrl>
    <description><![CDATA[
        <div style="font-family: Arial, sans-serif; font-size: 13px; line-height: 1.5; color: #1e293b;">
          <h3 style="margin-top:0; color:#059669; border-bottom:2px solid #10b981; padding-bottom:4px;">Brownfield — Turano Lodigiano (Lodi)</h3>
          <p><b>ID Lead:</b> FV-LOM-W339104227 | <b>Località:</b> Turano Lodigiano (Lodi, Lombardia)</p>
          <p><b>Superficie:</b> 19.85 ha (198,466 mq) · <b>Potenza:</b> ~16.54 MWp (~21,170 MWh/a)</p>
          <hr style="border:0; border-top:1px dashed #cbd5e1;"/>
          <p><b>⚡ Cabina Primaria AT/MT:</b> STAZIONE_AT_TERNA Turano centrale<br/>
             <b>Distanza di allaccio:</b> 510 m · <b>CAPEX Allaccio:</b> € 78,150</p>
          <p><b>💶 Valutazione Acquisto:</b> 8.10 €/mq (€ 1,607,575)<br/>
             <b>🌱 Canone Diritto Superficie (30y):</b> ~€ 59,550/anno</p>
          <p><b>🏢 Proprietà:</b> Procedura Liquidatoria Area Turano Lodigiano<br/>
             <b>📞 Contatto / PEC:</b> fallimento.turanolodigiano@pecfallimenti.it</p>
          <p><b>Punteggio Idoneità:</b> <span style="font-weight:bold; color:#059669;">92.2/100</span> (TOP OPPORTUNITÀ)</p>
          
          <div style="margin-top:10px; font-size:11px; color:#64748b;">
            <i>Nicola Valigi Engine System — Conforme D.Lgs. 199/2021 (Aree Idonee)</i>
          </div>
        </div>
        ]]></description>
    <Point>
      <coordinates>9.644894,45.226808,0</coordinates>
    </Point>
  </Placemark>
  <Placemark>
    <name>Brownfield — Broni (Pavia) (92.2/100)</name>
    <styleUrl>#pin-top</styleUrl>
    <description><![CDATA[
        <div style="font-family: Arial, sans-serif; font-size: 13px; line-height: 1.5; color: #1e293b;">
          <h3 style="margin-top:0; color:#059669; border-bottom:2px solid #10b981; padding-bottom:4px;">Brownfield — Broni (Pavia)</h3>
          <p><b>ID Lead:</b> FV-LOM-W163810956 | <b>Località:</b> Broni (Pavia, Lombardia)</p>
          <p><b>Superficie:</b> 16.55 ha (165,531 mq) · <b>Potenza:</b> ~13.79 MWp (~17,657 MWh/a)</p>
          <hr style="border:0; border-top:1px dashed #cbd5e1;"/>
          <p><b>⚡ Cabina Primaria AT/MT:</b> SOTTOSTAZIONE_FERROVIARIA RFI Broni<br/>
             <b>Distanza di allaccio:</b> 510 m · <b>CAPEX Allaccio:</b> € 78,150</p>
          <p><b>💶 Valutazione Acquisto:</b> 8.10 €/mq (€ 1,340,801)<br/>
             <b>🌱 Canone Diritto Superficie (30y):</b> ~€ 49,650/anno</p>
          <p><b>🏢 Proprietà:</b> Procedura Liquidatoria Area Broni<br/>
             <b>📞 Contatto / PEC:</b> fallimento.broni@pecfallimenti.it</p>
          <p><b>Punteggio Idoneità:</b> <span style="font-weight:bold; color:#059669;">92.2/100</span> (TOP OPPORTUNITÀ)</p>
          
          <div style="margin-top:10px; font-size:11px; color:#64748b;">
            <i>Nicola Valigi Engine System — Conforme D.Lgs. 199/2021 (Aree Idonee)</i>
          </div>
        </div>
        ]]></description>
    <Point>
      <coordinates>9.252794,45.062272,0</coordinates>
    </Point>
  </Placemark>
  <Placemark>
    <name>Brownfield — Brescia (Brescia) (92.2/100)</name>
    <styleUrl>#pin-top</styleUrl>
    <description><![CDATA[
        <div style="font-family: Arial, sans-serif; font-size: 13px; line-height: 1.5; color: #1e293b;">
          <h3 style="margin-top:0; color:#059669; border-bottom:2px solid #10b981; padding-bottom:4px;">Brownfield — Brescia (Brescia)</h3>
          <p><b>ID Lead:</b> FV-LOM-W141562466 | <b>Località:</b> Brescia (Brescia, Lombardia)</p>
          <p><b>Superficie:</b> 13.69 ha (136,864 mq) · <b>Potenza:</b> ~11.41 MWp (~14,599 MWh/a)</p>
          <hr style="border:0; border-top:1px dashed #cbd5e1;"/>
          <p><b>⚡ Cabina Primaria AT/MT:</b> CABINA_PRIMARIA Pietra<br/>
             <b>Distanza di allaccio:</b> 510 m · <b>CAPEX Allaccio:</b> € 78,150</p>
          <p><b>💶 Valutazione Acquisto:</b> 8.10 €/mq (€ 1,108,598)<br/>
             <b>🌱 Canone Diritto Superficie (30y):</b> ~€ 41,070/anno</p>
          <p><b>🏢 Proprietà:</b> Procedura Liquidatoria Area Brescia<br/>
             <b>📞 Contatto / PEC:</b> fallimento.brescia@pecfallimenti.it</p>
          <p><b>Punteggio Idoneità:</b> <span style="font-weight:bold; color:#059669;">92.2/100</span> (TOP OPPORTUNITÀ)</p>
          
          <div style="margin-top:10px; font-size:11px; color:#64748b;">
            <i>Nicola Valigi Engine System — Conforme D.Lgs. 199/2021 (Aree Idonee)</i>
          </div>
        </div>
        ]]></description>
    <Point>
      <coordinates>10.194319,45.529768,0</coordinates>
    </Point>
  </Placemark>
  <Placemark>
    <name>Area Cava di Ghiaia Scaligera Z.I. (92.0/100)</name>
    <styleUrl>#pin-top</styleUrl>
    <description><![CDATA[
        <div style="font-family: Arial, sans-serif; font-size: 13px; line-height: 1.5; color: #1e293b;">
          <h3 style="margin-top:0; color:#059669; border-bottom:2px solid #10b981; padding-bottom:4px;">Area Cava di Ghiaia Scaligera Z.I.</h3>
          <p><b>ID Lead:</b> LEAD-VEN-001 | <b>Località:</b> Zevio (Verona, Veneto)</p>
          <p><b>Superficie:</b> 9.50 ha (95,000 mq) · <b>Potenza:</b> ~7.92 MWp (~10,292 MWh/a)</p>
          <hr style="border:0; border-top:1px dashed #cbd5e1;"/>
          <p><b>⚡ Cabina Primaria AT/MT:</b> CP Zevio 132/20 kV (Enel Distribuzione)<br/>
             <b>Distanza di allaccio:</b> 890 m · <b>CAPEX Allaccio:</b> € 102,850</p>
          <p><b>💶 Valutazione Acquisto:</b> 8.20 €/mq (€ 779,000)<br/>
             <b>🌱 Canone Diritto Superficie (30y):</b> ~€ 28,500/anno</p>
          <p><b>🏢 Proprietà:</b> Scaligera Inerti S.r.l.<br/>
             <b>📞 Contatto / PEC:</b> scaligerainerti@pec.it</p>
          <p><b>Punteggio Idoneità:</b> <span style="font-weight:bold; color:#059669;">92.0/100</span> (TOP OPPORTUNITÀ)</p>
          
          <div style="margin-top:10px; font-size:11px; color:#64748b;">
            <i>Nicola Valigi Engine System — Conforme D.Lgs. 199/2021 (Aree Idonee)</i>
          </div>
        </div>
        ]]></description>
    <Point>
      <coordinates>11.135,45.3725,0</coordinates>
    </Point>
  </Placemark>
  <Placemark>
    <name>Comparto Industriale Espansione Adria Interporto (92.0/100)</name>
    <styleUrl>#pin-top</styleUrl>
    <description><![CDATA[
        <div style="font-family: Arial, sans-serif; font-size: 13px; line-height: 1.5; color: #1e293b;">
          <h3 style="margin-top:0; color:#059669; border-bottom:2px solid #10b981; padding-bottom:4px;">Comparto Industriale Espansione Adria Interporto</h3>
          <p><b>ID Lead:</b> LEAD-VEN-002 | <b>Località:</b> Adria (Rovigo, Veneto)</p>
          <p><b>Superficie:</b> 7.20 ha (72,000 mq) · <b>Potenza:</b> ~6.00 MWp (~7,800 MWh/a)</p>
          <hr style="border:0; border-top:1px dashed #cbd5e1;"/>
          <p><b>⚡ Cabina Primaria AT/MT:</b> CP Adria 132/20 kV<br/>
             <b>Distanza di allaccio:</b> 410 m · <b>CAPEX Allaccio:</b> € 71,650</p>
          <p><b>💶 Valutazione Acquisto:</b> 7.90 €/mq (€ 568,800)<br/>
             <b>🌱 Canone Diritto Superficie (30y):</b> ~€ 21,600/anno</p>
          <p><b>🏢 Proprietà:</b> Polesine Sviluppo Industriale S.r.l.<br/>
             <b>📞 Contatto / PEC:</b> polesinesviluppo@pec.it</p>
          <p><b>Punteggio Idoneità:</b> <span style="font-weight:bold; color:#059669;">92.0/100</span> (TOP OPPORTUNITÀ)</p>
          
          <div style="margin-top:10px; font-size:11px; color:#64748b;">
            <i>Nicola Valigi Engine System — Conforme D.Lgs. 199/2021 (Aree Idonee)</i>
          </div>
        </div>
        ]]></description>
    <Point>
      <coordinates>12.0498,45.0612,0</coordinates>
    </Point>
  </Placemark>
  <Placemark>
    <name>Ex Cava di Inerti e Ghiaia Montichiari (91.2/100)</name>
    <styleUrl>#pin-top</styleUrl>
    <description><![CDATA[
        <div style="font-family: Arial, sans-serif; font-size: 13px; line-height: 1.5; color: #1e293b;">
          <h3 style="margin-top:0; color:#059669; border-bottom:2px solid #10b981; padding-bottom:4px;">Ex Cava di Inerti e Ghiaia Montichiari</h3>
          <p><b>ID Lead:</b> LEAD-LOMB-001 | <b>Località:</b> Montichiari (Brescia, Lombardia)</p>
          <p><b>Superficie:</b> 8.50 ha (85,000 mq) · <b>Potenza:</b> ~7.08 MWp (~9,067 MWh/a)</p>
          <hr style="border:0; border-top:1px dashed #cbd5e1;"/>
          <p><b>⚡ Cabina Primaria AT/MT:</b> CP Montichiari 132/15 kV (Enel Distribuzione)<br/>
             <b>Distanza di allaccio:</b> 650 m · <b>CAPEX Allaccio:</b> € 87,250</p>
          <p><b>💶 Valutazione Acquisto:</b> 7.80 €/mq (€ 663,000)<br/>
             <b>🌱 Canone Diritto Superficie (30y):</b> ~€ 25,500/anno</p>
          <p><b>🏢 Proprietà:</b> Inerti del Chiese S.r.l. (in liquidazione)<br/>
             <b>📞 Contatto / PEC:</b> inertidelchiese@pec.it</p>
          <p><b>Punteggio Idoneità:</b> <span style="font-weight:bold; color:#059669;">91.2/100</span> (TOP OPPORTUNITÀ)</p>
          
          <div style="margin-top:10px; font-size:11px; color:#64748b;">
            <i>Nicola Valigi Engine System — Conforme D.Lgs. 199/2021 (Aree Idonee)</i>
          </div>
        </div>
        ]]></description>
    <Point>
      <coordinates>10.3845,45.4182,0</coordinates>
    </Point>
  </Placemark>
  <Placemark>
    <name>Brownfield — Broni (Pavia) (91.2/100)</name>
    <styleUrl>#pin-top</styleUrl>
    <description><![CDATA[
        <div style="font-family: Arial, sans-serif; font-size: 13px; line-height: 1.5; color: #1e293b;">
          <h3 style="margin-top:0; color:#059669; border-bottom:2px solid #10b981; padding-bottom:4px;">Brownfield — Broni (Pavia)</h3>
          <p><b>ID Lead:</b> FV-LOM-W167441723 | <b>Località:</b> Broni (Pavia, Lombardia)</p>
          <p><b>Superficie:</b> 9.69 ha (96,878 mq) · <b>Potenza:</b> ~8.07 MWp (~10,334 MWh/a)</p>
          <hr style="border:0; border-top:1px dashed #cbd5e1;"/>
          <p><b>⚡ Cabina Primaria AT/MT:</b> CABINA_PRIMARIA Broni<br/>
             <b>Distanza di allaccio:</b> 510 m · <b>CAPEX Allaccio:</b> € 78,150</p>
          <p><b>💶 Valutazione Acquisto:</b> 8.10 €/mq (€ 784,712)<br/>
             <b>🌱 Canone Diritto Superficie (30y):</b> ~€ 29,070/anno</p>
          <p><b>🏢 Proprietà:</b> Procedura Liquidatoria Area Broni<br/>
             <b>📞 Contatto / PEC:</b> fallimento.broni@pecfallimenti.it</p>
          <p><b>Punteggio Idoneità:</b> <span style="font-weight:bold; color:#059669;">91.2/100</span> (TOP OPPORTUNITÀ)</p>
          
          <div style="margin-top:10px; font-size:11px; color:#64748b;">
            <i>Nicola Valigi Engine System — Conforme D.Lgs. 199/2021 (Aree Idonee)</i>
          </div>
        </div>
        ]]></description>
    <Point>
      <coordinates>9.252794,45.062272,0</coordinates>
    </Point>
  </Placemark>
  <Placemark>
    <name>Brownfield — Corteolona e Genzone (Pavia) (91.2/100)</name>
    <styleUrl>#pin-top</styleUrl>
    <description><![CDATA[
        <div style="font-family: Arial, sans-serif; font-size: 13px; line-height: 1.5; color: #1e293b;">
          <h3 style="margin-top:0; color:#059669; border-bottom:2px solid #10b981; padding-bottom:4px;">Brownfield — Corteolona e Genzone (Pavia)</h3>
          <p><b>ID Lead:</b> FV-LOM-W201928268 | <b>Località:</b> Corteolona e Genzone (Pavia, Lombardia)</p>
          <p><b>Superficie:</b> 7.88 ha (78,783 mq) · <b>Potenza:</b> ~6.57 MWp (~8,404 MWh/a)</p>
          <hr style="border:0; border-top:1px dashed #cbd5e1;"/>
          <p><b>⚡ Cabina Primaria AT/MT:</b> STAZIONE_AT Ecoenergia<br/>
             <b>Distanza di allaccio:</b> 510 m · <b>CAPEX Allaccio:</b> € 78,150</p>
          <p><b>💶 Valutazione Acquisto:</b> 8.10 €/mq (€ 638,142)<br/>
             <b>🌱 Canone Diritto Superficie (30y):</b> ~€ 23,640/anno</p>
          <p><b>🏢 Proprietà:</b> Procedura Liquidatoria Area Corteolona e Genzone<br/>
             <b>📞 Contatto / PEC:</b> fallimento.corteolonaegenzone@pecfallimenti.it</p>
          <p><b>Punteggio Idoneità:</b> <span style="font-weight:bold; color:#059669;">91.2/100</span> (TOP OPPORTUNITÀ)</p>
          
          <div style="margin-top:10px; font-size:11px; color:#64748b;">
            <i>Nicola Valigi Engine System — Conforme D.Lgs. 199/2021 (Aree Idonee)</i>
          </div>
        </div>
        ]]></description>
    <Point>
      <coordinates>9.364092,45.168635,0</coordinates>
    </Point>
  </Placemark>
  <Placemark>
    <name>Brownfield — Brescia (Brescia) (91.2/100)</name>
    <styleUrl>#pin-top</styleUrl>
    <description><![CDATA[
        <div style="font-family: Arial, sans-serif; font-size: 13px; line-height: 1.5; color: #1e293b;">
          <h3 style="margin-top:0; color:#059669; border-bottom:2px solid #10b981; padding-bottom:4px;">Brownfield — Brescia (Brescia)</h3>
          <p><b>ID Lead:</b> FV-LOM-W434743359 | <b>Località:</b> Brescia (Brescia, Lombardia)</p>
          <p><b>Superficie:</b> 7.83 ha (78,346 mq) · <b>Potenza:</b> ~6.53 MWp (~8,357 MWh/a)</p>
          <hr style="border:0; border-top:1px dashed #cbd5e1;"/>
          <p><b>⚡ Cabina Primaria AT/MT:</b> CABINA_PRIMARIA Donegani<br/>
             <b>Distanza di allaccio:</b> 510 m · <b>CAPEX Allaccio:</b> € 78,150</p>
          <p><b>💶 Valutazione Acquisto:</b> 8.10 €/mq (€ 634,603)<br/>
             <b>🌱 Canone Diritto Superficie (30y):</b> ~€ 23,490/anno</p>
          <p><b>🏢 Proprietà:</b> Procedura Liquidatoria Area Brescia<br/>
             <b>📞 Contatto / PEC:</b> fallimento.brescia@pecfallimenti.it</p>
          <p><b>Punteggio Idoneità:</b> <span style="font-weight:bold; color:#059669;">91.2/100</span> (TOP OPPORTUNITÀ)</p>
          
          <div style="margin-top:10px; font-size:11px; color:#64748b;">
            <i>Nicola Valigi Engine System — Conforme D.Lgs. 199/2021 (Aree Idonee)</i>
          </div>
        </div>
        ]]></description>
    <Point>
      <coordinates>10.20427,45.539327,0</coordinates>
    </Point>
  </Placemark>
  <Placemark>
    <name>Brownfield — Brescia (Brescia) (91.2/100)</name>
    <styleUrl>#pin-top</styleUrl>
    <description><![CDATA[
        <div style="font-family: Arial, sans-serif; font-size: 13px; line-height: 1.5; color: #1e293b;">
          <h3 style="margin-top:0; color:#059669; border-bottom:2px solid #10b981; padding-bottom:4px;">Brownfield — Brescia (Brescia)</h3>
          <p><b>ID Lead:</b> FV-LOM-W703098968 | <b>Località:</b> Brescia (Brescia, Lombardia)</p>
          <p><b>Superficie:</b> 7.29 ha (72,898 mq) · <b>Potenza:</b> ~6.07 MWp (~7,776 MWh/a)</p>
          <hr style="border:0; border-top:1px dashed #cbd5e1;"/>
          <p><b>⚡ Cabina Primaria AT/MT:</b> CABINA_DA_CLASSIFICARE<br/>
             <b>Distanza di allaccio:</b> 510 m · <b>CAPEX Allaccio:</b> € 78,150</p>
          <p><b>💶 Valutazione Acquisto:</b> 8.10 €/mq (€ 590,474)<br/>
             <b>🌱 Canone Diritto Superficie (30y):</b> ~€ 21,870/anno</p>
          <p><b>🏢 Proprietà:</b> Procedura Liquidatoria Area Brescia<br/>
             <b>📞 Contatto / PEC:</b> fallimento.brescia@pecfallimenti.it</p>
          <p><b>Punteggio Idoneità:</b> <span style="font-weight:bold; color:#059669;">91.2/100</span> (TOP OPPORTUNITÀ)</p>
          
          <div style="margin-top:10px; font-size:11px; color:#64748b;">
            <i>Nicola Valigi Engine System — Conforme D.Lgs. 199/2021 (Aree Idonee)</i>
          </div>
        </div>
        ]]></description>
    <Point>
      <coordinates>10.207605,45.557531,0</coordinates>
    </Point>
  </Placemark>
  <Placemark>
    <name>Brownfield — Saronno (Varese) (91.2/100)</name>
    <styleUrl>#pin-top</styleUrl>
    <description><![CDATA[
        <div style="font-family: Arial, sans-serif; font-size: 13px; line-height: 1.5; color: #1e293b;">
          <h3 style="margin-top:0; color:#059669; border-bottom:2px solid #10b981; padding-bottom:4px;">Brownfield — Saronno (Varese)</h3>
          <p><b>ID Lead:</b> FV-LOM-W168909461 | <b>Località:</b> Saronno (Varese, Lombardia)</p>
          <p><b>Superficie:</b> 6.17 ha (61,672 mq) · <b>Potenza:</b> ~5.14 MWp (~6,578 MWh/a)</p>
          <hr style="border:0; border-top:1px dashed #cbd5e1;"/>
          <p><b>⚡ Cabina Primaria AT/MT:</b> CABINA_PRIMARIA Uboldo<br/>
             <b>Distanza di allaccio:</b> 510 m · <b>CAPEX Allaccio:</b> € 78,150</p>
          <p><b>💶 Valutazione Acquisto:</b> 8.10 €/mq (€ 499,543)<br/>
             <b>🌱 Canone Diritto Superficie (30y):</b> ~€ 18,510/anno</p>
          <p><b>🏢 Proprietà:</b> Procedura Liquidatoria Area Saronno<br/>
             <b>📞 Contatto / PEC:</b> fallimento.saronno@pecfallimenti.it</p>
          <p><b>Punteggio Idoneità:</b> <span style="font-weight:bold; color:#059669;">91.2/100</span> (TOP OPPORTUNITÀ)</p>
          
          <div style="margin-top:10px; font-size:11px; color:#64748b;">
            <i>Nicola Valigi Engine System — Conforme D.Lgs. 199/2021 (Aree Idonee)</i>
          </div>
        </div>
        ]]></description>
    <Point>
      <coordinates>9.014988,45.621636,0</coordinates>
    </Point>
  </Placemark>
  <Placemark>
    <name>Lotto Adiacente Asse E45 Zona Produttiva Valle Umbra (89.0/100)</name>
    <styleUrl>#pin-top</styleUrl>
    <description><![CDATA[
        <div style="font-family: Arial, sans-serif; font-size: 13px; line-height: 1.5; color: #1e293b;">
          <h3 style="margin-top:0; color:#059669; border-bottom:2px solid #10b981; padding-bottom:4px;">Lotto Adiacente Asse E45 Zona Produttiva Valle Umbra</h3>
          <p><b>ID Lead:</b> LEAD-UMB-001 | <b>Località:</b> Marsciano (Perugia, Umbria)</p>
          <p><b>Superficie:</b> 5.20 ha (52,000 mq) · <b>Potenza:</b> ~4.33 MWp (~6,110 MWh/a)</p>
          <hr style="border:0; border-top:1px dashed #cbd5e1;"/>
          <p><b>⚡ Cabina Primaria AT/MT:</b> CP Marsciano 132/20 kV (Enel Distribuzione)<br/>
             <b>Distanza di allaccio:</b> 690 m · <b>CAPEX Allaccio:</b> € 89,850</p>
          <p><b>💶 Valutazione Acquisto:</b> 7.60 €/mq (€ 395,200)<br/>
             <b>🌱 Canone Diritto Superficie (30y):</b> ~€ 15,600/anno</p>
          <p><b>🏢 Proprietà:</b> Agricola & Immobiliare Umbra S.r.l.<br/>
             <b>📞 Contatto / PEC:</b> immobiliareumbra@pec.it</p>
          <p><b>Punteggio Idoneità:</b> <span style="font-weight:bold; color:#059669;">89.0/100</span> (TOP OPPORTUNITÀ)</p>
          
          <div style="margin-top:10px; font-size:11px; color:#64748b;">
            <i>Nicola Valigi Engine System — Conforme D.Lgs. 199/2021 (Aree Idonee)</i>
          </div>
        </div>
        ]]></description>
    <Point>
      <coordinates>12.3389,42.9124,0</coordinates>
    </Point>
  </Placemark>
  <Placemark>
    <name>Area Confinante Autostrada A14 e Polo Produttivo Jesi (89.0/100)</name>
    <styleUrl>#pin-top</styleUrl>
    <description><![CDATA[
        <div style="font-family: Arial, sans-serif; font-size: 13px; line-height: 1.5; color: #1e293b;">
          <h3 style="margin-top:0; color:#059669; border-bottom:2px solid #10b981; padding-bottom:4px;">Area Confinante Autostrada A14 e Polo Produttivo Jesi</h3>
          <p><b>ID Lead:</b> LEAD-MAR-001 | <b>Località:</b> Jesi (Ancona, Marche)</p>
          <p><b>Superficie:</b> 6.40 ha (64,000 mq) · <b>Potenza:</b> ~5.33 MWp (~7,413 MWh/a)</p>
          <hr style="border:0; border-top:1px dashed #cbd5e1;"/>
          <p><b>⚡ Cabina Primaria AT/MT:</b> CP Jesi Est 132/20 kV<br/>
             <b>Distanza di allaccio:</b> 920 m · <b>CAPEX Allaccio:</b> € 104,800</p>
          <p><b>💶 Valutazione Acquisto:</b> 8.70 €/mq (€ 556,800)<br/>
             <b>🌱 Canone Diritto Superficie (30y):</b> ~€ 19,200/anno</p>
          <p><b>🏢 Proprietà:</b> Vallesina Sviluppo S.r.l.<br/>
             <b>📞 Contatto / PEC:</b> vallesinasviluppo@pec.it</p>
          <p><b>Punteggio Idoneità:</b> <span style="font-weight:bold; color:#059669;">89.0/100</span> (TOP OPPORTUNITÀ)</p>
          
          <div style="margin-top:10px; font-size:11px; color:#64748b;">
            <i>Nicola Valigi Engine System — Conforme D.Lgs. 199/2021 (Aree Idonee)</i>
          </div>
        </div>
        ]]></description>
    <Point>
      <coordinates>13.254,43.535,0</coordinates>
    </Point>
  </Placemark>
  <Placemark>
    <name>Ex Discarica Bonificata Mantova Est (88.2/100)</name>
    <styleUrl>#pin-top</styleUrl>
    <description><![CDATA[
        <div style="font-family: Arial, sans-serif; font-size: 13px; line-height: 1.5; color: #1e293b;">
          <h3 style="margin-top:0; color:#059669; border-bottom:2px solid #10b981; padding-bottom:4px;">Ex Discarica Bonificata Mantova Est</h3>
          <p><b>ID Lead:</b> LEAD-LOMB-003 | <b>Località:</b> Roncoferraro (Mantova, Lombardia)</p>
          <p><b>Superficie:</b> 6.00 ha (60,000 mq) · <b>Potenza:</b> ~5.00 MWp (~6,400 MWh/a)</p>
          <hr style="border:0; border-top:1px dashed #cbd5e1;"/>
          <p><b>⚡ Cabina Primaria AT/MT:</b> CP Roncoferraro 132/20 kV<br/>
             <b>Distanza di allaccio:</b> 1,100 m · <b>CAPEX Allaccio:</b> € 116,500</p>
          <p><b>💶 Valutazione Acquisto:</b> 6.90 €/mq (€ 414,000)<br/>
             <b>🌱 Canone Diritto Superficie (30y):</b> ~€ 18,000/anno</p>
          <p><b>🏢 Proprietà:</b> Econord Ambiente S.r.l.<br/>
             <b>📞 Contatto / PEC:</b> econord.ambiente@pec.it</p>
          <p><b>Punteggio Idoneità:</b> <span style="font-weight:bold; color:#059669;">88.2/100</span> (TOP OPPORTUNITÀ)</p>
          
          <div style="margin-top:10px; font-size:11px; color:#64748b;">
            <i>Nicola Valigi Engine System — Conforme D.Lgs. 199/2021 (Aree Idonee)</i>
          </div>
        </div>
        ]]></description>
    <Point>
      <coordinates>10.952,45.132,0</coordinates>
    </Point>
  </Placemark>
  <Placemark>
    <name>Buffer Industriale 350M — Castel Goffredo (Mantova) (88.2/100)</name>
    <styleUrl>#pin-top</styleUrl>
    <description><![CDATA[
        <div style="font-family: Arial, sans-serif; font-size: 13px; line-height: 1.5; color: #1e293b;">
          <h3 style="margin-top:0; color:#059669; border-bottom:2px solid #10b981; padding-bottom:4px;">Buffer Industriale 350M — Castel Goffredo (Mantova)</h3>
          <p><b>ID Lead:</b> FV-LOM-W414164633 | <b>Località:</b> Castel Goffredo (Mantova, Lombardia)</p>
          <p><b>Superficie:</b> 59.53 ha (595,281 mq) · <b>Potenza:</b> ~49.61 MWp (~63,497 MWh/a)</p>
          <hr style="border:0; border-top:1px dashed #cbd5e1;"/>
          <p><b>⚡ Cabina Primaria AT/MT:</b> STAZIONE_AT UT Fulgar<br/>
             <b>Distanza di allaccio:</b> 590 m · <b>CAPEX Allaccio:</b> € 83,350</p>
          <p><b>💶 Valutazione Acquisto:</b> 8.50 €/mq (€ 5,059,888)<br/>
             <b>🌱 Canone Diritto Superficie (30y):</b> ~€ 178,590/anno</p>
          <p><b>🏢 Proprietà:</b> Sviluppo Industriale Castel Goffredo S.p.A.<br/>
             <b>📞 Contatto / PEC:</b> info.castelgoffredo@pec.it</p>
          <p><b>Punteggio Idoneità:</b> <span style="font-weight:bold; color:#059669;">88.2/100</span> (TOP OPPORTUNITÀ)</p>
          
          <div style="margin-top:10px; font-size:11px; color:#64748b;">
            <i>Nicola Valigi Engine System — Conforme D.Lgs. 199/2021 (Aree Idonee)</i>
          </div>
        </div>
        ]]></description>
    <Point>
      <coordinates>10.473792,45.281994,0</coordinates>
    </Point>
  </Placemark>
  <Placemark>
    <name>Buffer Industriale 350M — Gussago (Brescia) (88.2/100)</name>
    <styleUrl>#pin-top</styleUrl>
    <description><![CDATA[
        <div style="font-family: Arial, sans-serif; font-size: 13px; line-height: 1.5; color: #1e293b;">
          <h3 style="margin-top:0; color:#059669; border-bottom:2px solid #10b981; padding-bottom:4px;">Buffer Industriale 350M — Gussago (Brescia)</h3>
          <p><b>ID Lead:</b> FV-LOM-W390893484 | <b>Località:</b> Gussago (Brescia, Lombardia)</p>
          <p><b>Superficie:</b> 58.58 ha (585,822 mq) · <b>Potenza:</b> ~48.82 MWp (~62,488 MWh/a)</p>
          <hr style="border:0; border-top:1px dashed #cbd5e1;"/>
          <p><b>⚡ Cabina Primaria AT/MT:</b> STAZIONE_AT_TERNA Gussago<br/>
             <b>Distanza di allaccio:</b> 590 m · <b>CAPEX Allaccio:</b> € 83,350</p>
          <p><b>💶 Valutazione Acquisto:</b> 8.50 €/mq (€ 4,979,487)<br/>
             <b>🌱 Canone Diritto Superficie (30y):</b> ~€ 175,740/anno</p>
          <p><b>🏢 Proprietà:</b> Sviluppo Industriale Gussago S.p.A.<br/>
             <b>📞 Contatto / PEC:</b> info.gussago@pec.it</p>
          <p><b>Punteggio Idoneità:</b> <span style="font-weight:bold; color:#059669;">88.2/100</span> (TOP OPPORTUNITÀ)</p>
          
          <div style="margin-top:10px; font-size:11px; color:#64748b;">
            <i>Nicola Valigi Engine System — Conforme D.Lgs. 199/2021 (Aree Idonee)</i>
          </div>
        </div>
        ]]></description>
    <Point>
      <coordinates>10.158161,45.557591,0</coordinates>
    </Point>
  </Placemark>
  <Placemark>
    <name>Buffer Industriale 350M — Castel Goffredo (Mantova) (88.2/100)</name>
    <styleUrl>#pin-top</styleUrl>
    <description><![CDATA[
        <div style="font-family: Arial, sans-serif; font-size: 13px; line-height: 1.5; color: #1e293b;">
          <h3 style="margin-top:0; color:#059669; border-bottom:2px solid #10b981; padding-bottom:4px;">Buffer Industriale 350M — Castel Goffredo (Mantova)</h3>
          <p><b>ID Lead:</b> FV-LOM-W165394856 | <b>Località:</b> Castel Goffredo (Mantova, Lombardia)</p>
          <p><b>Superficie:</b> 58.47 ha (584,654 mq) · <b>Potenza:</b> ~48.72 MWp (~62,363 MWh/a)</p>
          <hr style="border:0; border-top:1px dashed #cbd5e1;"/>
          <p><b>⚡ Cabina Primaria AT/MT:</b> CABINA_PRIMARIA Zecchini CS<br/>
             <b>Distanza di allaccio:</b> 590 m · <b>CAPEX Allaccio:</b> € 83,350</p>
          <p><b>💶 Valutazione Acquisto:</b> 8.50 €/mq (€ 4,969,559)<br/>
             <b>🌱 Canone Diritto Superficie (30y):</b> ~€ 175,410/anno</p>
          <p><b>🏢 Proprietà:</b> Sviluppo Industriale Castel Goffredo S.p.A.<br/>
             <b>📞 Contatto / PEC:</b> info.castelgoffredo@pec.it</p>
          <p><b>Punteggio Idoneità:</b> <span style="font-weight:bold; color:#059669;">88.2/100</span> (TOP OPPORTUNITÀ)</p>
          
          <div style="margin-top:10px; font-size:11px; color:#64748b;">
            <i>Nicola Valigi Engine System — Conforme D.Lgs. 199/2021 (Aree Idonee)</i>
          </div>
        </div>
        ]]></description>
    <Point>
      <coordinates>10.473792,45.281994,0</coordinates>
    </Point>
  </Placemark>
  <Placemark>
    <name>Buffer Industriale 350M — Spinadesco (Cremona) (88.2/100)</name>
    <styleUrl>#pin-top</styleUrl>
    <description><![CDATA[
        <div style="font-family: Arial, sans-serif; font-size: 13px; line-height: 1.5; color: #1e293b;">
          <h3 style="margin-top:0; color:#059669; border-bottom:2px solid #10b981; padding-bottom:4px;">Buffer Industriale 350M — Spinadesco (Cremona)</h3>
          <p><b>ID Lead:</b> FV-LOM-W411981325 | <b>Località:</b> Spinadesco (Cremona, Lombardia)</p>
          <p><b>Superficie:</b> 54.84 ha (548,420 mq) · <b>Potenza:</b> ~45.70 MWp (~58,498 MWh/a)</p>
          <hr style="border:0; border-top:1px dashed #cbd5e1;"/>
          <p><b>⚡ Cabina Primaria AT/MT:</b> STAZIONE_AT_TERNA UT Arvedi ISP<br/>
             <b>Distanza di allaccio:</b> 590 m · <b>CAPEX Allaccio:</b> € 83,350</p>
          <p><b>💶 Valutazione Acquisto:</b> 8.50 €/mq (€ 4,661,570)<br/>
             <b>🌱 Canone Diritto Superficie (30y):</b> ~€ 164,520/anno</p>
          <p><b>🏢 Proprietà:</b> Sviluppo Industriale Spinadesco S.p.A.<br/>
             <b>📞 Contatto / PEC:</b> info.spinadesco@pec.it</p>
          <p><b>Punteggio Idoneità:</b> <span style="font-weight:bold; color:#059669;">88.2/100</span> (TOP OPPORTUNITÀ)</p>
          
          <div style="margin-top:10px; font-size:11px; color:#64748b;">
            <i>Nicola Valigi Engine System — Conforme D.Lgs. 199/2021 (Aree Idonee)</i>
          </div>
        </div>
        ]]></description>
    <Point>
      <coordinates>9.944084,45.14828,0</coordinates>
    </Point>
  </Placemark>
  <Placemark>
    <name>Buffer Industriale 350M — Ferrera Erbognone (Pavia) (88.2/100)</name>
    <styleUrl>#pin-top</styleUrl>
    <description><![CDATA[
        <div style="font-family: Arial, sans-serif; font-size: 13px; line-height: 1.5; color: #1e293b;">
          <h3 style="margin-top:0; color:#059669; border-bottom:2px solid #10b981; padding-bottom:4px;">Buffer Industriale 350M — Ferrera Erbognone (Pavia)</h3>
          <p><b>ID Lead:</b> FV-LOM-W775135895 | <b>Località:</b> Ferrera Erbognone (Pavia, Lombardia)</p>
          <p><b>Superficie:</b> 53.38 ha (533,804 mq) · <b>Potenza:</b> ~44.48 MWp (~56,939 MWh/a)</p>
          <hr style="border:0; border-top:1px dashed #cbd5e1;"/>
          <p><b>⚡ Cabina Primaria AT/MT:</b> CABINA_DA_CLASSIFICARE<br/>
             <b>Distanza di allaccio:</b> 590 m · <b>CAPEX Allaccio:</b> € 83,350</p>
          <p><b>💶 Valutazione Acquisto:</b> 8.50 €/mq (€ 4,537,334)<br/>
             <b>🌱 Canone Diritto Superficie (30y):</b> ~€ 160,140/anno</p>
          <p><b>🏢 Proprietà:</b> Sviluppo Industriale Ferrera Erbognone S.p.A.<br/>
             <b>📞 Contatto / PEC:</b> info.ferreraerbognone@pec.it</p>
          <p><b>Punteggio Idoneità:</b> <span style="font-weight:bold; color:#059669;">88.2/100</span> (TOP OPPORTUNITÀ)</p>
          
          <div style="margin-top:10px; font-size:11px; color:#64748b;">
            <i>Nicola Valigi Engine System — Conforme D.Lgs. 199/2021 (Aree Idonee)</i>
          </div>
        </div>
        ]]></description>
    <Point>
      <coordinates>8.877372,45.099381,0</coordinates>
    </Point>
  </Placemark>
  <Placemark>
    <name>Buffer Industriale 350M — Spinadesco (Cremona) (88.2/100)</name>
    <styleUrl>#pin-top</styleUrl>
    <description><![CDATA[
        <div style="font-family: Arial, sans-serif; font-size: 13px; line-height: 1.5; color: #1e293b;">
          <h3 style="margin-top:0; color:#059669; border-bottom:2px solid #10b981; padding-bottom:4px;">Buffer Industriale 350M — Spinadesco (Cremona)</h3>
          <p><b>ID Lead:</b> FV-LOM-W116519166 | <b>Località:</b> Spinadesco (Cremona, Lombardia)</p>
          <p><b>Superficie:</b> 52.39 ha (523,914 mq) · <b>Potenza:</b> ~43.66 MWp (~55,884 MWh/a)</p>
          <hr style="border:0; border-top:1px dashed #cbd5e1;"/>
          <p><b>⚡ Cabina Primaria AT/MT:</b> STAZIONE_AT_TERNA Isp Cremona<br/>
             <b>Distanza di allaccio:</b> 590 m · <b>CAPEX Allaccio:</b> € 83,350</p>
          <p><b>💶 Valutazione Acquisto:</b> 8.50 €/mq (€ 4,453,269)<br/>
             <b>🌱 Canone Diritto Superficie (30y):</b> ~€ 157,170/anno</p>
          <p><b>🏢 Proprietà:</b> Sviluppo Industriale Spinadesco S.p.A.<br/>
             <b>📞 Contatto / PEC:</b> info.spinadesco@pec.it</p>
          <p><b>Punteggio Idoneità:</b> <span style="font-weight:bold; color:#059669;">88.2/100</span> (TOP OPPORTUNITÀ)</p>
          
          <div style="margin-top:10px; font-size:11px; color:#64748b;">
            <i>Nicola Valigi Engine System — Conforme D.Lgs. 199/2021 (Aree Idonee)</i>
          </div>
        </div>
        ]]></description>
    <Point>
      <coordinates>9.944084,45.14828,0</coordinates>
    </Point>
  </Placemark>
  <Placemark>
    <name>Buffer Industriale 350M — Montanaso Lombardo (Lodi) (88.2/100)</name>
    <styleUrl>#pin-top</styleUrl>
    <description><![CDATA[
        <div style="font-family: Arial, sans-serif; font-size: 13px; line-height: 1.5; color: #1e293b;">
          <h3 style="margin-top:0; color:#059669; border-bottom:2px solid #10b981; padding-bottom:4px;">Buffer Industriale 350M — Montanaso Lombardo (Lodi)</h3>
          <p><b>ID Lead:</b> FV-LOM-W162960205 | <b>Località:</b> Montanaso Lombardo (Lodi, Lombardia)</p>
          <p><b>Superficie:</b> 50.00 ha (499,985 mq) · <b>Potenza:</b> ~41.67 MWp (~53,332 MWh/a)</p>
          <hr style="border:0; border-top:1px dashed #cbd5e1;"/>
          <p><b>⚡ Cabina Primaria AT/MT:</b> STAZIONE_AT_TERNA Tavazzano Centrale<br/>
             <b>Distanza di allaccio:</b> 590 m · <b>CAPEX Allaccio:</b> € 83,350</p>
          <p><b>💶 Valutazione Acquisto:</b> 8.50 €/mq (€ 4,249,872)<br/>
             <b>🌱 Canone Diritto Superficie (30y):</b> ~€ 150,000/anno</p>
          <p><b>🏢 Proprietà:</b> Sviluppo Industriale Montanaso Lombardo S.p.A.<br/>
             <b>📞 Contatto / PEC:</b> info.montanasolombardo@pec.it</p>
          <p><b>Punteggio Idoneità:</b> <span style="font-weight:bold; color:#059669;">88.2/100</span> (TOP OPPORTUNITÀ)</p>
          
          <div style="margin-top:10px; font-size:11px; color:#64748b;">
            <i>Nicola Valigi Engine System — Conforme D.Lgs. 199/2021 (Aree Idonee)</i>
          </div>
        </div>
        ]]></description>
    <Point>
      <coordinates>9.43456,45.332484,0</coordinates>
    </Point>
  </Placemark>
  <Placemark>
    <name>Buffer Industriale 350M — Brescia (Brescia) (88.2/100)</name>
    <styleUrl>#pin-top</styleUrl>
    <description><![CDATA[
        <div style="font-family: Arial, sans-serif; font-size: 13px; line-height: 1.5; color: #1e293b;">
          <h3 style="margin-top:0; color:#059669; border-bottom:2px solid #10b981; padding-bottom:4px;">Buffer Industriale 350M — Brescia (Brescia)</h3>
          <p><b>ID Lead:</b> FV-LOM-W203351763 | <b>Località:</b> Brescia (Brescia, Lombardia)</p>
          <p><b>Superficie:</b> 49.64 ha (496,406 mq) · <b>Potenza:</b> ~41.37 MWp (~52,950 MWh/a)</p>
          <hr style="border:0; border-top:1px dashed #cbd5e1;"/>
          <p><b>⚡ Cabina Primaria AT/MT:</b> STAZIONE_AT UT Iveco BS<br/>
             <b>Distanza di allaccio:</b> 590 m · <b>CAPEX Allaccio:</b> € 83,350</p>
          <p><b>💶 Valutazione Acquisto:</b> 8.50 €/mq (€ 4,219,451)<br/>
             <b>🌱 Canone Diritto Superficie (30y):</b> ~€ 148,920/anno</p>
          <p><b>🏢 Proprietà:</b> Sviluppo Industriale Brescia S.p.A.<br/>
             <b>📞 Contatto / PEC:</b> info.brescia@pec.it</p>
          <p><b>Punteggio Idoneità:</b> <span style="font-weight:bold; color:#059669;">88.2/100</span> (TOP OPPORTUNITÀ)</p>
          
          <div style="margin-top:10px; font-size:11px; color:#64748b;">
            <i>Nicola Valigi Engine System — Conforme D.Lgs. 199/2021 (Aree Idonee)</i>
          </div>
        </div>
        ]]></description>
    <Point>
      <coordinates>10.205176,45.551691,0</coordinates>
    </Point>
  </Placemark>
  <Placemark>
    <name>Buffer Industriale 350M — Castiglione delle Stiviere (Mantova) (88.2/100)</name>
    <styleUrl>#pin-top</styleUrl>
    <description><![CDATA[
        <div style="font-family: Arial, sans-serif; font-size: 13px; line-height: 1.5; color: #1e293b;">
          <h3 style="margin-top:0; color:#059669; border-bottom:2px solid #10b981; padding-bottom:4px;">Buffer Industriale 350M — Castiglione delle Stiviere (Mantova)</h3>
          <p><b>ID Lead:</b> FV-LOM-W202536811 | <b>Località:</b> Castiglione delle Stiviere (Mantova, Lombardia)</p>
          <p><b>Superficie:</b> 46.77 ha (467,696 mq) · <b>Potenza:</b> ~38.97 MWp (~49,888 MWh/a)</p>
          <hr style="border:0; border-top:1px dashed #cbd5e1;"/>
          <p><b>⚡ Cabina Primaria AT/MT:</b> CABINA_PRIMARIA San Pietro BS<br/>
             <b>Distanza di allaccio:</b> 590 m · <b>CAPEX Allaccio:</b> € 83,350</p>
          <p><b>💶 Valutazione Acquisto:</b> 8.50 €/mq (€ 3,975,416)<br/>
             <b>🌱 Canone Diritto Superficie (30y):</b> ~€ 140,310/anno</p>
          <p><b>🏢 Proprietà:</b> Sviluppo Industriale Castiglione delle Stiviere S.p.A.<br/>
             <b>📞 Contatto / PEC:</b> info.castiglionedellestiviere@pec.it</p>
          <p><b>Punteggio Idoneità:</b> <span style="font-weight:bold; color:#059669;">88.2/100</span> (TOP OPPORTUNITÀ)</p>
          
          <div style="margin-top:10px; font-size:11px; color:#64748b;">
            <i>Nicola Valigi Engine System — Conforme D.Lgs. 199/2021 (Aree Idonee)</i>
          </div>
        </div>
        ]]></description>
    <Point>
      <coordinates>10.468022,45.395571,0</coordinates>
    </Point>
  </Placemark>
  <Placemark>
    <name>Buffer Industriale 350M — Mantova (Mantova) (88.2/100)</name>
    <styleUrl>#pin-top</styleUrl>
    <description><![CDATA[
        <div style="font-family: Arial, sans-serif; font-size: 13px; line-height: 1.5; color: #1e293b;">
          <h3 style="margin-top:0; color:#059669; border-bottom:2px solid #10b981; padding-bottom:4px;">Buffer Industriale 350M — Mantova (Mantova)</h3>
          <p><b>ID Lead:</b> FV-LOM-W116797658 | <b>Località:</b> Mantova (Mantova, Lombardia)</p>
          <p><b>Superficie:</b> 45.43 ha (454,263 mq) · <b>Potenza:</b> ~37.86 MWp (~48,455 MWh/a)</p>
          <hr style="border:0; border-top:1px dashed #cbd5e1;"/>
          <p><b>⚡ Cabina Primaria AT/MT:</b> STAZIONE_AT_TERNA Mantova 380<br/>
             <b>Distanza di allaccio:</b> 590 m · <b>CAPEX Allaccio:</b> € 83,350</p>
          <p><b>💶 Valutazione Acquisto:</b> 8.50 €/mq (€ 3,861,236)<br/>
             <b>🌱 Canone Diritto Superficie (30y):</b> ~€ 136,290/anno</p>
          <p><b>🏢 Proprietà:</b> Sviluppo Industriale Mantova S.p.A.<br/>
             <b>📞 Contatto / PEC:</b> info.mantova@pec.it</p>
          <p><b>Punteggio Idoneità:</b> <span style="font-weight:bold; color:#059669;">88.2/100</span> (TOP OPPORTUNITÀ)</p>
          
          <div style="margin-top:10px; font-size:11px; color:#64748b;">
            <i>Nicola Valigi Engine System — Conforme D.Lgs. 199/2021 (Aree Idonee)</i>
          </div>
        </div>
        ]]></description>
    <Point>
      <coordinates>10.836934,45.144667,0</coordinates>
    </Point>
  </Placemark>
  <Placemark>
    <name>Buffer Industriale 350M — Mantova (Mantova) (88.2/100)</name>
    <styleUrl>#pin-top</styleUrl>
    <description><![CDATA[
        <div style="font-family: Arial, sans-serif; font-size: 13px; line-height: 1.5; color: #1e293b;">
          <h3 style="margin-top:0; color:#059669; border-bottom:2px solid #10b981; padding-bottom:4px;">Buffer Industriale 350M — Mantova (Mantova)</h3>
          <p><b>ID Lead:</b> FV-LOM-W412909650 | <b>Località:</b> Mantova (Mantova, Lombardia)</p>
          <p><b>Superficie:</b> 45.26 ha (452,553 mq) · <b>Potenza:</b> ~37.71 MWp (~48,272 MWh/a)</p>
          <hr style="border:0; border-top:1px dashed #cbd5e1;"/>
          <p><b>⚡ Cabina Primaria AT/MT:</b> STAZIONE_AT_TERNA Mantova 220<br/>
             <b>Distanza di allaccio:</b> 590 m · <b>CAPEX Allaccio:</b> € 83,350</p>
          <p><b>💶 Valutazione Acquisto:</b> 8.50 €/mq (€ 3,846,700)<br/>
             <b>🌱 Canone Diritto Superficie (30y):</b> ~€ 135,780/anno</p>
          <p><b>🏢 Proprietà:</b> Sviluppo Industriale Mantova S.p.A.<br/>
             <b>📞 Contatto / PEC:</b> info.mantova@pec.it</p>
          <p><b>Punteggio Idoneità:</b> <span style="font-weight:bold; color:#059669;">88.2/100</span> (TOP OPPORTUNITÀ)</p>
          
          <div style="margin-top:10px; font-size:11px; color:#64748b;">
            <i>Nicola Valigi Engine System — Conforme D.Lgs. 199/2021 (Aree Idonee)</i>
          </div>
        </div>
        ]]></description>
    <Point>
      <coordinates>10.836934,45.144667,0</coordinates>
    </Point>
  </Placemark>
  <Placemark>
    <name>Buffer Industriale 350M — Castiglione delle Stiviere (Mantova) (88.2/100)</name>
    <styleUrl>#pin-top</styleUrl>
    <description><![CDATA[
        <div style="font-family: Arial, sans-serif; font-size: 13px; line-height: 1.5; color: #1e293b;">
          <h3 style="margin-top:0; color:#059669; border-bottom:2px solid #10b981; padding-bottom:4px;">Buffer Industriale 350M — Castiglione delle Stiviere (Mantova)</h3>
          <p><b>ID Lead:</b> FV-LOM-W414164634 | <b>Località:</b> Castiglione delle Stiviere (Mantova, Lombardia)</p>
          <p><b>Superficie:</b> 45.04 ha (450,433 mq) · <b>Potenza:</b> ~37.54 MWp (~48,046 MWh/a)</p>
          <hr style="border:0; border-top:1px dashed #cbd5e1;"/>
          <p><b>⚡ Cabina Primaria AT/MT:</b> STAZIONE_AT UT Huntsman<br/>
             <b>Distanza di allaccio:</b> 590 m · <b>CAPEX Allaccio:</b> € 83,350</p>
          <p><b>💶 Valutazione Acquisto:</b> 8.50 €/mq (€ 3,828,680)<br/>
             <b>🌱 Canone Diritto Superficie (30y):</b> ~€ 135,120/anno</p>
          <p><b>🏢 Proprietà:</b> Sviluppo Industriale Castiglione delle Stiviere S.p.A.<br/>
             <b>📞 Contatto / PEC:</b> info.castiglionedellestiviere@pec.it</p>
          <p><b>Punteggio Idoneità:</b> <span style="font-weight:bold; color:#059669;">88.2/100</span> (TOP OPPORTUNITÀ)</p>
          
          <div style="margin-top:10px; font-size:11px; color:#64748b;">
            <i>Nicola Valigi Engine System — Conforme D.Lgs. 199/2021 (Aree Idonee)</i>
          </div>
        </div>
        ]]></description>
    <Point>
      <coordinates>10.468022,45.395571,0</coordinates>
    </Point>
  </Placemark>
  <Placemark>
    <name>Buffer Industriale 350M — Montanaso Lombardo (Lodi) (88.2/100)</name>
    <styleUrl>#pin-top</styleUrl>
    <description><![CDATA[
        <div style="font-family: Arial, sans-serif; font-size: 13px; line-height: 1.5; color: #1e293b;">
          <h3 style="margin-top:0; color:#059669; border-bottom:2px solid #10b981; padding-bottom:4px;">Buffer Industriale 350M — Montanaso Lombardo (Lodi)</h3>
          <p><b>ID Lead:</b> FV-LOM-W414164632 | <b>Località:</b> Montanaso Lombardo (Lodi, Lombardia)</p>
          <p><b>Superficie:</b> 43.04 ha (430,393 mq) · <b>Potenza:</b> ~35.87 MWp (~45,909 MWh/a)</p>
          <hr style="border:0; border-top:1px dashed #cbd5e1;"/>
          <p><b>⚡ Cabina Primaria AT/MT:</b> STAZIONE_AT Tavazzano TAG<br/>
             <b>Distanza di allaccio:</b> 590 m · <b>CAPEX Allaccio:</b> € 83,350</p>
          <p><b>💶 Valutazione Acquisto:</b> 8.50 €/mq (€ 3,658,340)<br/>
             <b>🌱 Canone Diritto Superficie (30y):</b> ~€ 129,120/anno</p>
          <p><b>🏢 Proprietà:</b> Sviluppo Industriale Montanaso Lombardo S.p.A.<br/>
             <b>📞 Contatto / PEC:</b> info.montanasolombardo@pec.it</p>
          <p><b>Punteggio Idoneità:</b> <span style="font-weight:bold; color:#059669;">88.2/100</span> (TOP OPPORTUNITÀ)</p>
          
          <div style="margin-top:10px; font-size:11px; color:#64748b;">
            <i>Nicola Valigi Engine System — Conforme D.Lgs. 199/2021 (Aree Idonee)</i>
          </div>
        </div>
        ]]></description>
    <Point>
      <coordinates>9.43456,45.332484,0</coordinates>
    </Point>
  </Placemark>
  <Placemark>
    <name>Buffer Industriale 350M — Mantova (Mantova) (88.2/100)</name>
    <styleUrl>#pin-top</styleUrl>
    <description><![CDATA[
        <div style="font-family: Arial, sans-serif; font-size: 13px; line-height: 1.5; color: #1e293b;">
          <h3 style="margin-top:0; color:#059669; border-bottom:2px solid #10b981; padding-bottom:4px;">Buffer Industriale 350M — Mantova (Mantova)</h3>
          <p><b>ID Lead:</b> FV-LOM-W116801402 | <b>Località:</b> Mantova (Mantova, Lombardia)</p>
          <p><b>Superficie:</b> 42.71 ha (427,054 mq) · <b>Potenza:</b> ~35.59 MWp (~45,552 MWh/a)</p>
          <hr style="border:0; border-top:1px dashed #cbd5e1;"/>
          <p><b>⚡ Cabina Primaria AT/MT:</b> STAZIONE_AT Burgo Mantova<br/>
             <b>Distanza di allaccio:</b> 590 m · <b>CAPEX Allaccio:</b> € 83,350</p>
          <p><b>💶 Valutazione Acquisto:</b> 8.50 €/mq (€ 3,629,959)<br/>
             <b>🌱 Canone Diritto Superficie (30y):</b> ~€ 128,130/anno</p>
          <p><b>🏢 Proprietà:</b> Sviluppo Industriale Mantova S.p.A.<br/>
             <b>📞 Contatto / PEC:</b> info.mantova@pec.it</p>
          <p><b>Punteggio Idoneità:</b> <span style="font-weight:bold; color:#059669;">88.2/100</span> (TOP OPPORTUNITÀ)</p>
          
          <div style="margin-top:10px; font-size:11px; color:#64748b;">
            <i>Nicola Valigi Engine System — Conforme D.Lgs. 199/2021 (Aree Idonee)</i>
          </div>
        </div>
        ]]></description>
    <Point>
      <coordinates>10.799547,45.17447,0</coordinates>
    </Point>
  </Placemark>
  <Placemark>
    <name>Fascia Logistica Autostrada A1 Piacenza Sud (87.0/100)</name>
    <styleUrl>#pin-top</styleUrl>
    <description><![CDATA[
        <div style="font-family: Arial, sans-serif; font-size: 13px; line-height: 1.5; color: #1e293b;">
          <h3 style="margin-top:0; color:#059669; border-bottom:2px solid #10b981; padding-bottom:4px;">Fascia Logistica Autostrada A1 Piacenza Sud</h3>
          <p><b>ID Lead:</b> LEAD-ER-002 | <b>Località:</b> Pontenure (Piacenza, Emilia-Romagna)</p>
          <p><b>Superficie:</b> 5.50 ha (55,000 mq) · <b>Potenza:</b> ~4.58 MWp (~6,188 MWh/a)</p>
          <hr style="border:0; border-top:1px dashed #cbd5e1;"/>
          <p><b>⚡ Cabina Primaria AT/MT:</b> CP Pontenure 132/15 kV<br/>
             <b>Distanza di allaccio:</b> 780 m · <b>CAPEX Allaccio:</b> € 95,700</p>
          <p><b>💶 Valutazione Acquisto:</b> 8.80 €/mq (€ 484,000)<br/>
             <b>🌱 Canone Diritto Superficie (30y):</b> ~€ 16,500/anno</p>
          <p><b>🏢 Proprietà:</b> Famiglia Bersani (Eredi)<br/>
             <b>📞 Contatto / PEC:</b> +39 335 6841290</p>
          <p><b>Punteggio Idoneità:</b> <span style="font-weight:bold; color:#059669;">87.0/100</span> (TOP OPPORTUNITÀ)</p>
          
          <div style="margin-top:10px; font-size:11px; color:#64748b;">
            <i>Nicola Valigi Engine System — Conforme D.Lgs. 199/2021 (Aree Idonee)</i>
          </div>
        </div>
        ]]></description>
    <Point>
      <coordinates>9.7712,44.9984,0</coordinates>
    </Point>
  </Placemark>
  <Placemark>
    <name>Lotto Industriale Agricolo Adiacente Tangenziale Ovest (86.2/100)</name>
    <styleUrl>#pin-top</styleUrl>
    <description><![CDATA[
        <div style="font-family: Arial, sans-serif; font-size: 13px; line-height: 1.5; color: #1e293b;">
          <h3 style="margin-top:0; color:#059669; border-bottom:2px solid #10b981; padding-bottom:4px;">Lotto Industriale Agricolo Adiacente Tangenziale Ovest</h3>
          <p><b>ID Lead:</b> LEAD-LOMB-002 | <b>Località:</b> Cava Manara (Pavia, Lombardia)</p>
          <p><b>Superficie:</b> 4.20 ha (42,000 mq) · <b>Potenza:</b> ~3.50 MWp (~4,480 MWh/a)</p>
          <hr style="border:0; border-top:1px dashed #cbd5e1;"/>
          <p><b>⚡ Cabina Primaria AT/MT:</b> CP Pavia Sud 132/15 kV<br/>
             <b>Distanza di allaccio:</b> 980 m · <b>CAPEX Allaccio:</b> € 108,700</p>
          <p><b>💶 Valutazione Acquisto:</b> 8.50 €/mq (€ 357,000)<br/>
             <b>🌱 Canone Diritto Superficie (30y):</b> ~€ 12,600/anno</p>
          <p><b>🏢 Proprietà:</b> Sviluppo Logistica Ticino S.p.A.<br/>
             <b>📞 Contatto / PEC:</b> sviluppoticino@legalmail.it</p>
          <p><b>Punteggio Idoneità:</b> <span style="font-weight:bold; color:#059669;">86.2/100</span> (TOP OPPORTUNITÀ)</p>
          
          <div style="margin-top:10px; font-size:11px; color:#64748b;">
            <i>Nicola Valigi Engine System — Conforme D.Lgs. 199/2021 (Aree Idonee)</i>
          </div>
        </div>
        ]]></description>
    <Point>
      <coordinates>9.1082,45.1384,0</coordinates>
    </Point>
  </Placemark>
</Document>
</kml>